idElset,classificationMarking,satNo,epoch,meanMotion,idOnOrbit,uct,eccentricity,inclination,raan,argOfPerigee,meanAnomaly,bStar,meanMotionDot,meanMotionDDot,semiMajorAxis,period,apogee,perigee,origObjectId,line1,line2,createdAt,createdBy,source,dataMode,ephemType,origNetwork,elset
93831a6c-cd88-4139-a3d0-43c0bb2b4303,U//PR-EXO-ELSETS,23779,2025-08-09T19:49:49.064965Z,0.9959540222315234,23779,False,0.0007981295206254717,10.20939525545585,48.60273761582318,152.521070400473,211.076529972729,0.0,0.0,0.0,42355.42096958722,1445.849876456698,42389.22608142156,42321.61585775287,23779,1 23779U 96006A   25221.82626233 +.00000000 +00000+0 +00000+0 2 99992,2 23779  10.2094  48.6027 0007981 152.5211 211.0765  0.99595402000000,2025-08-09T20:30:31.209Z,system.exo,EXO,REAL,2,OPS1,"{'NORAD_ID': 23779, 'classification': 'U', 'COSPAR_ID': '96006A', 'BC': 0.0, 'n_ddot': 0.0, 'B_star': 0.0, 'ephemeris_type': 2, 'elset_num': 9999, 'inclination': 10.2094, 'RAAN': 48.6027, 'eccentricity': 0.0007981, 'perigee': 152.5211, 'mean_anomaly': 211.0765, 'mean_motion': 0.99595402, 'rev_num': 0, 'line1': '1 23779U 96006A   25221.82626233 +.00000000 +00000+0 +00000+0 2 99992', 'line2': '2 23779  10.2094  48.6027 0007981 152.5211 211.0765  0.99595402000000', 'epoch': datetime.datetime(2025, 8, 9, 19, 49, 49, 65312)}"
ae4793ca-e499-4733-a568-cc34ad3ce46c,U//PR-EXO-ELSETS,32253,2025-08-09T18:42:55.957824Z,0.9904390365668911,32253,False,0.0006260709037232758,2.747937751341468,82.57253508505391,96.81520588452084,115.0218829897937,0.0,0.0,0.0,42512.50504093328,1453.900691345324,42539.1208833838,42485.88919848276,32253,1 32253U 07044B   25221.77981433 +.00000000 +00000+0 +00000+0 2 99993,2 32253   2.7479  82.5725 0006260  96.8152 115.0219  0.99043903000006,2025-08-09T19:33:30.219Z,system.exo,EXO,REAL,2,OPS1,"{'NORAD_ID': 32253, 'classification': 'U', 'COSPAR_ID': '07044B', 'BC': 0.0, 'n_ddot': 0.0, 'B_star': 0.0, 'ephemeris_type': 2, 'elset_num': 9999, 'inclination': 2.7479, 'RAAN': 82.5725, 'eccentricity': 0.000626, 'perigee': 96.8152, 'mean_anomaly': 115.0219, 'mean_motion': 0.99043903, 'rev_num': 0, 'line1': '1 32253U 07044B   25221.77981433 +.00000000 +00000+0 +00000+0 2 99993', 'line2': '2 32253   2.7479  82.5725 0006260  96.8152 115.0219  0.99043903000006', 'epoch': datetime.datetime(2025, 8, 9, 18, 42, 55, 958112)}"
9188050b-6057-40f8-961b-bcc831b9c45c,U//PR-EXO-ELSETS,40332,2025-08-09T19:44:11.625194Z,1.002668742310413,40332,False,0.000684632164861611,0.06174217038768492,94.98643948089479,10.58248898291304,204.1180825864882,0.0,0.0,0.0,42166.11073641983,1436.167239722524,42194.97901209711,42137.24246074256,40332,1 40332U 14078A   25221.82235677 +.00000000 +00000+0 +00000+0 2 99993,2 40332   0.0617  94.9864 0006846  10.5825 204.1181  1.00266874000004,2025-08-09T20:54:31.720Z,system.exo,EXO,REAL,2,OPS1,"{'NORAD_ID': 40332, 'classification': 'U', 'COSPAR_ID': '14078A', 'BC': 0.0, 'n_ddot': 0.0, 'B_star': 0.0, 'ephemeris_type': 2, 'elset_num': 9999, 'inclination': 0.0617, 'RAAN': 94.9864, 'eccentricity': 0.0006846, 'perigee': 10.5825, 'mean_anomaly': 204.1181, 'mean_motion': 1.00266874, 'rev_num': 0, 'line1': '1 40332U 14078A   25221.82235677 +.00000000 +00000+0 +00000+0 2 99993', 'line2': '2 40332   0.0617  94.9864 0006846  10.5825 204.1181  1.00266874000004', 'epoch': datetime.datetime(2025, 8, 9, 19, 44, 11, 624928)}"
6299b4e2-83f8-48f7-a0d0-76f486baeed8,U//PR-EXO-ELSETS,39022,2025-08-09T19:27:30.853635Z,1.002671604671878,39022,False,0.0003715089827336974,0.4591688700719091,89.05531126271062,46.9615106660619,169.2991486027795,0.0,0.0,0.0,42166.03048767414,1436.163139846008,42181.69554676652,42150.36542858174,39022,1 39022U 12070A   25221.81077377 +.00000000 +00000+0 +00000+0 2 99997,2 39022   0.4592  89.0553 0003715  46.9615 169.2991  1.00267160000005,2025-08-09T21:39:30.015Z,system.exo,EXO,REAL,2,OPS1,"{'NORAD_ID': 39022, 'classification': 'U', 'COSPAR_ID': '12070A', 'BC': 0.0, 'n_ddot': 0.0, 'B_star': 0.0, 'ephemeris_type': 2, 'elset_num': 9999, 'inclination': 0.4592, 'RAAN': 89.0553, 'eccentricity': 0.0003715, 'perigee': 46.9615, 'mean_anomaly': 169.2991, 'mean_motion': 1.0026716, 'rev_num': 0, 'line1': '1 39022U 12070A   25221.81077377 +.00000000 +00000+0 +00000+0 2 99997', 'line2': '2 39022   0.4592  89.0553 0003715  46.9615 169.2991  1.00267160000005', 'epoch': datetime.datetime(2025, 8, 9, 19, 27, 30, 853728)}"
91699b29-d8b3-4606-955a-e434d78fcdd7,U//PR-EXO-ELSETS,37605,2025-08-09T02:52:59.690351Z,1.002685349490453,37605,False,0.000373482247356615,1.318838028417226,85.89992430024,143.9756928620696,186.3300373711896,0.0,0.0,0.0,42165.64514527769,1436.14345291051,42181.39326518779,42149.89702536759,37605,1 37605U 11022A   25221.12013530 +.00000000 +00000+0 +00000+0 2 99993,2 37605   1.3188  85.8999 0003734 143.9757 186.3300  1.00268534000005,2025-08-09T03:33:31.960Z,system.exo,EXO,REAL,2,OPS1,"{'NORAD_ID': 37605, 'classification': 'U', 'COSPAR_ID': '11022A', 'BC': 0.0, 'n_ddot': 0.0, 'B_star': 0.0, 'ephemeris_type': 2, 'elset_num': 9999, 'inclination': 1.3188, 'RAAN': 85.8999, 'eccentricity': 0.0003734, 'perigee': 143.9757, 'mean_anomaly': 186.33, 'mean_motion': 1.00268534, 'rev_num': 0, 'line1': '1 37605U 11022A   25221.12013530 +.00000000 +00000+0 +00000+0 2 99993', 'line2': '2 37605   1.3188  85.8999 0003734 143.9757 186.3300  1.00268534000005', 'epoch': datetime.datetime(2025, 8, 9, 2, 52, 59, 689920)}"
21fcc652-322e-42c9-83c9-0917ea75022f,U//PR-EXO-ELSETS,28234,2025-08-09T16:51:32.778946Z,0.9923145253598885,28234,False,0.0003397566995753351,12.59022013310907,25.56421088660039,261.3354502659083,323.4162462446247,0.0,0.0,0.0,42458.92198735176,1451.152798028172,42473.34769055371,42444.49628414982,28234,1 28234U 04015A   25221.70246272 +.00000000 +00000+0 +00000+0 2 99990,2 28234  12.5902  25.5642 0003397 261.3355 323.4162  0.99231452000007,2025-08-09T17:51:30.556Z,system.exo,EXO,REAL,2,OPS1,"{'NORAD_ID': 28234, 'classification': 'U', 'COSPAR_ID': '04015A', 'BC': 0.0, 'n_ddot': 0.0, 'B_star': 0.0, 'ephemeris_type': 2, 'elset_num': 9999, 'inclination': 12.5902, 'RAAN': 25.5642, 'eccentricity': 0.0003397, 'perigee': 261.3355, 'mean_anomaly': 323.4162, 'mean_motion': 0.99231452, 'rev_num': 0, 'line1': '1 28234U 04015A   25221.70246272 +.00000000 +00000+0 +00000+0 2 99990', 'line2': '2 28234  12.5902  25.5642 0003397 261.3355 323.4162  0.99231452000007', 'epoch': datetime.datetime(2025, 8, 9, 16, 51, 32, 779008)}"
c9e88686-7c70-4faf-b8a2-7d990859e998,U//PR-EXO-ELSETS,15181,2025-08-09T18:05:38.315003Z,1.003093517897862,15181,False,0.002372597364503259,9.548190598203023,315.7372574764901,204.7685945112931,107.3427091743998,0.0,0.0,0.0,42154.20596482961,1435.559072316352,42254.22092280449,42054.19100685472,15181,1 15181U 84078F   25221.75391568 +.00000000 +00000+0 +00000+0 2 99998,2 15181   9.5482 315.7373 0023725 204.7686 107.3427  1.00309351000003,2025-08-09T18:30:31.834Z,system.exo,EXO,REAL,2,OPS1,"{'NORAD_ID': 15181, 'classification': 'U', 'COSPAR_ID': '84078F', 'BC': 0.0, 'n_ddot': 0.0, 'B_star': 0.0, 'ephemeris_type': 2, 'elset_num': 9999, 'inclination': 9.5482, 'RAAN': 315.7373, 'eccentricity': 0.0023725, 'perigee': 204.7686, 'mean_anomaly': 107.3427, 'mean_motion': 1.00309351, 'rev_num': 0, 'line1': '1 15181U 84078F   25221.75391568 +.00000000 +00000+0 +00000+0 2 99998', 'line2': '2 15181   9.5482 315.7373 0023725 204.7686 107.3427  1.00309351000003', 'epoch': datetime.datetime(2025, 8, 9, 18, 5, 38, 314752)}"
dcafce23-e1cb-4c5d-ac6b-e27417a4c235,U//PR-EXO-ELSETS,23016,2025-08-09T20:14:22.451018Z,0.9921741845786608,23016,False,0.0001730045515027352,12.53533252933048,24.65293815978728,184.2173746022514,91.86747280507201,0.0,0.0,0.0,42462.92570491716,1451.358060290103,42470.27198433423,42455.57942550009,23016,1 23016U 94013A   25221.84331541 +.00000000 +00000+0 +00000+0 2 99999,2 23016  12.5353  24.6529 0001730 184.2174  91.8675  0.99217418000006,2025-08-09T20:42:30.241Z,system.exo,EXO,REAL,2,OPS1,"{'NORAD_ID': 23016, 'classification': 'U', 'COSPAR_ID': '94013A', 'BC': 0.0, 'n_ddot': 0.0, 'B_star': 0.0, 'ephemeris_type': 2, 'elset_num': 9999, 'inclination': 12.5353, 'RAAN': 24.6529, 'eccentricity': 0.000173, 'perigee': 184.2174, 'mean_anomaly': 91.8675, 'mean_motion': 0.99217418, 'rev_num': 0, 'line1': '1 23016U 94013A   25221.84331541 +.00000000 +00000+0 +00000+0 2 99999', 'line2': '2 23016  12.5353  24.6529 0001730 184.2174  91.8675  0.99217418000006', 'epoch': datetime.datetime(2025, 8, 9, 20, 14, 22, 451424)}"
56bfe4b0-3b02-480c-b21c-4dca5da02598,U//PR-EXO-ELSETS,43698,2025-08-09T19:44:11.625194Z,1.002667776004016,43698,False,0.0002321334484727878,0.116132830101932,266.4198938093446,185.2652446151693,217.936976016424,0.0,0.0,0.0,42166.13782773028,1436.168623807685,42175.92599871301,42156.34965674754,43698,1 43698U 18089A   25221.82235677 +.00000000 +00000+0 +00000+0 2 99997,2 43698   0.1161 266.4199 0002321 185.2652 217.9370  1.00266777000000,2025-08-09T20:03:32.697Z,system.exo,EXO,REAL,2,OPS1,"{'NORAD_ID': 43698, 'classification': 'U', 'COSPAR_ID': '18089A', 'BC': 0.0, 'n_ddot': 0.0, 'B_star': 0.0, 'ephemeris_type': 2, 'elset_num': 9999, 'inclination': 0.1161, 'RAAN': 266.4199, 'eccentricity': 0.0002321, 'perigee': 185.2652, 'mean_anomaly': 217.937, 'mean_motion': 1.00266777, 'rev_num': 0, 'line1': '1 43698U 18089A   25221.82235677 +.00000000 +00000+0 +00000+0 2 99997', 'line2': '2 43698   0.1161 266.4199 0002321 185.2652 217.9370  1.00266777000000', 'epoch': datetime.datetime(2025, 8, 9, 19, 44, 11, 624928)}"
